CCSDS_OMM_VERS = 2.0
CREATION_DATE  = 
ORIGINATOR     = 

OBJECT_NAME    = RSP-03
OBJECT_ID      = 1998-067XL
CENTER_NAME    = EARTH
REF_FRAME      = TEME
TIME_SYSTEM    = UTC
MEAN_ELEMENT_THEORY = SGP/SGP4

EPOCH          = 2026-02-12T15:25:19.971264
MEAN_MOTION    = 16.12100303
ECCENTRICITY   = .0009438
INCLINATION    = 51.6117
RA_OF_ASC_NODE = 174.7279
ARG_OF_PERICENTER = 324.4115
MEAN_ANOMALY   = 35.6270

EPHEMERIS_TYPE = 0
CLASSIFICATION_TYPE = U
NORAD_CAT_ID   = 65732
ELEMENT_SET_NO = 999
REV_AT_EPOCH   = 2296
BSTAR          = .14645E-2
MEAN_MOTION_DOT = .1595936E-1
MEAN_MOTION_DDOT = .19444E-2

CCSDS_OMM_VERS = 2.0
CREATION_DATE  = 
ORIGINATOR     = 

OBJECT_NAME    = YOTSUBA-KULOVER
OBJECT_ID      = 1998-067XN
CENTER_NAME    = EARTH
REF_FRAME      = TEME
TIME_SYSTEM    = UTC
MEAN_ELEMENT_THEORY = SGP/SGP4

EPOCH          = 2026-02-12T14:12:43.259904
MEAN_MOTION    = 15.71964307
ECCENTRICITY   = .00043834
INCLINATION    = 51.6248
RA_OF_ASC_NODE = 186.5540
ARG_OF_PERICENTER = 287.5761
MEAN_ANOMALY   = 72.4758

EPHEMERIS_TYPE = 0
CLASSIFICATION_TYPE = U
NORAD_CAT_ID   = 65941
ELEMENT_SET_NO = 999
REV_AT_EPOCH   = 1954
BSTAR          = .99190093E-3
MEAN_MOTION_DOT = .133871E-2
MEAN_MOTION_DDOT = 0

CCSDS_OMM_VERS = 2.0
CREATION_DATE  = 
ORIGINATOR     = 

OBJECT_NAME    = BOTAN
OBJECT_ID      = 1998-067XP
CENTER_NAME    = EARTH
REF_FRAME      = TEME
TIME_SYSTEM    = UTC
MEAN_ELEMENT_THEORY = SGP/SGP4

EPOCH          = 2026-02-12T19:25:51.380544
MEAN_MOTION    = 15.87596665
ECCENTRICITY   = .00076613
INCLINATION    = 51.6163
RA_OF_ASC_NODE = 181.1968
ARG_OF_PERICENTER = 313.4599
MEAN_ANOMALY   = 46.5767

EPHEMERIS_TYPE = 0
CLASSIFICATION_TYPE = U
NORAD_CAT_ID   = 65942
ELEMENT_SET_NO = 999
REV_AT_EPOCH   = 1963
BSTAR          = .14578329E-2
MEAN_MOTION_DOT = .416489E-2
MEAN_MOTION_DDOT = 0

CCSDS_OMM_VERS = 2.0
CREATION_DATE  = 
ORIGINATOR     = 

OBJECT_NAME    = E-KAGAKU-1
OBJECT_ID      = 1998-067XQ
CENTER_NAME    = EARTH
REF_FRAME      = TEME
TIME_SYSTEM    = UTC
MEAN_ELEMENT_THEORY = SGP/SGP4

EPOCH          = 2026-02-12T18:48:55.106496
MEAN_MOTION    = 15.71895752
ECCENTRICITY   = .00040454
INCLINATION    = 51.6261
RA_OF_ASC_NODE = 185.5955
ARG_OF_PERICENTER = 304.0067
MEAN_ANOMALY   = 56.0546

EPHEMERIS_TYPE = 0
CLASSIFICATION_TYPE = U
NORAD_CAT_ID   = 65943
ELEMENT_SET_NO = 999
REV_AT_EPOCH   = 1957
BSTAR          = .98346817E-3
MEAN_MOTION_DOT = .132308E-2
MEAN_MOTION_DDOT = 0

CCSDS_OMM_VERS = 2.0
CREATION_DATE  = 
ORIGINATOR     = 

OBJECT_NAME    = HRC MONOBLOCK CAMERA
OBJECT_ID      = 1998-067XR
CENTER_NAME    = EARTH
REF_FRAME      = TEME
TIME_SYSTEM    = UTC
MEAN_ELEMENT_THEORY = SGP/SGP4

EPOCH          = 2026-02-12T20:35:57.873408
MEAN_MOTION    = 15.59621334
ECCENTRICITY   = .0001449
INCLINATION    = 51.6269
RA_OF_ASC_NODE = 190.5956
ARG_OF_PERICENTER = 1.9873
MEAN_ANOMALY   = 358.1125

EPHEMERIS_TYPE = 0
CLASSIFICATION_TYPE = U
NORAD_CAT_ID   = 66052
ELEMENT_SET_NO = 999
REV_AT_EPOCH   = 1851
BSTAR          = .5778E-3
MEAN_MOTION_DOT = .46703E-3
MEAN_MOTION_DDOT = 0

CCSDS_OMM_VERS = 2.0
CREATION_DATE  = 
ORIGINATOR     = 

OBJECT_NAME    = HTV-X1
OBJECT_ID      = 2025-241A
CENTER_NAME    = EARTH
REF_FRAME      = TEME
TIME_SYSTEM    = UTC
MEAN_ELEMENT_THEORY = SGP/SGP4

EPOCH          = 2026-02-12T17:31:29.272224
MEAN_MOTION    = 15.48568005
ECCENTRICITY   = .00110989
INCLINATION    = 51.6312
RA_OF_ASC_NODE = 195.7383
ARG_OF_PERICENTER = 92.2184
MEAN_ANOMALY   = 268.0075

EPHEMERIS_TYPE = 0
CLASSIFICATION_TYPE = U
NORAD_CAT_ID   = 66174
ELEMENT_SET_NO = 999
REV_AT_EPOCH   = 51
BSTAR          = .15726187E-3
MEAN_MOTION_DOT = .8107E-4
MEAN_MOTION_DDOT = 0

CCSDS_OMM_VERS = 2.0
CREATION_DATE  = 
ORIGINATOR     = 

OBJECT_NAME    = SZ-21 MODULE
OBJECT_ID      = 2025-246C
CENTER_NAME    = EARTH
REF_FRAME      = TEME
TIME_SYSTEM    = UTC
MEAN_ELEMENT_THEORY = SGP/SGP4

EPOCH          = 2026-02-12T21:47:34.845216
MEAN_MOTION    = 15.66652368
ECCENTRICITY   = .0002435
INCLINATION    = 41.4765
RA_OF_ASC_NODE = 355.6852
ARG_OF_PERICENTER = 293.5037
MEAN_ANOMALY   = 66.5548

EPHEMERIS_TYPE = 0
CLASSIFICATION_TYPE = U
NORAD_CAT_ID   = 66515
ELEMENT_SET_NO = 999
REV_AT_EPOCH   = 1418
BSTAR          = .30753E-3
MEAN_MOTION_DOT = .33011E-3
MEAN_MOTION_DDOT = 0

CCSDS_OMM_VERS = 2.0
CREATION_DATE  = 
ORIGINATOR     = 

OBJECT_NAME    = SHENZHOU-22
OBJECT_ID      = 2025-272A
CENTER_NAME    = EARTH
REF_FRAME      = TEME
TIME_SYSTEM    = UTC
MEAN_ELEMENT_THEORY = SGP/SGP4

EPOCH          = 2026-02-12T22:36:13.508064
MEAN_MOTION    = 15.59551723
ECCENTRICITY   = .00041313
INCLINATION    = 41.4683
RA_OF_ASC_NODE = 358.6180
ARG_OF_PERICENTER = 77.2049
MEAN_ANOMALY   = 282.9251

EPHEMERIS_TYPE = 0
CLASSIFICATION_TYPE = U
NORAD_CAT_ID   = 66645
ELEMENT_SET_NO = 999
REV_AT_EPOCH   = 26764
BSTAR          = .21881696E-3
MEAN_MOTION_DOT = .176E-3
MEAN_MOTION_DDOT = 0

CCSDS_OMM_VERS = 2.0
CREATION_DATE  = 
ORIGINATOR     = 

OBJECT_NAME    = SOYUZ-MS 28
OBJECT_ID      = 2025-275A
CENTER_NAME    = EARTH
REF_FRAME      = TEME
TIME_SYSTEM    = UTC
MEAN_ELEMENT_THEORY = SGP/SGP4

EPOCH          = 2026-02-12T17:31:29.271360
MEAN_MOTION    = 15.48568005
ECCENTRICITY   = .0011099
INCLINATION    = 51.6312
RA_OF_ASC_NODE = 195.7383
ARG_OF_PERICENTER = 92.2184
MEAN_ANOMALY   = 268.0075

EPHEMERIS_TYPE = 0
CLASSIFICATION_TYPE = U
NORAD_CAT_ID   = 66664
ELEMENT_SET_NO = 999
REV_AT_EPOCH   = 55246
BSTAR          = .15726E-3
MEAN_MOTION_DOT = .8107E-4
MEAN_MOTION_DDOT = 0

CCSDS_OMM_VERS = 2.0
CREATION_DATE  = 
ORIGINATOR     = 

OBJECT_NAME    = DUPLEX
OBJECT_ID      = 1998-067XS
CENTER_NAME    = EARTH
REF_FRAME      = TEME
TIME_SYSTEM    = UTC
MEAN_ELEMENT_THEORY = SGP/SGP4

EPOCH          = 2026-02-12T18:49:58.424736
MEAN_MOTION    = 15.54472077
ECCENTRICITY   = .00013914
INCLINATION    = 51.6278
RA_OF_ASC_NODE = 193.8544
ARG_OF_PERICENTER = 78.4261
MEAN_ANOMALY   = 281.6886

EPHEMERIS_TYPE = 0
CLASSIFICATION_TYPE = U
NORAD_CAT_ID   = 66906
ELEMENT_SET_NO = 999
REV_AT_EPOCH   = 1125
BSTAR          = .48138461E-3
MEAN_MOTION_DOT = .31917E-3
MEAN_MOTION_DDOT = 0

CCSDS_OMM_VERS = 2.0
CREATION_DATE  = 
ORIGINATOR     = 

OBJECT_NAME    = ISS OBJECT XT
OBJECT_ID      = 1998-067XT
CENTER_NAME    = EARTH
REF_FRAME      = TEME
TIME_SYSTEM    = UTC
MEAN_ELEMENT_THEORY = SGP/SGP4

EPOCH          = 2026-02-12T14:59:19.206240
MEAN_MOTION    = 15.62523563
ECCENTRICITY   = .0001966
INCLINATION    = 51.6268
RA_OF_ASC_NODE = 192.7837
ARG_OF_PERICENTER = 283.0392
MEAN_ANOMALY   = 77.0382

EPHEMERIS_TYPE = 0
CLASSIFICATION_TYPE = U
NORAD_CAT_ID   = 66907
ELEMENT_SET_NO = 999
REV_AT_EPOCH   = 1125
BSTAR          = .12305E-2
MEAN_MOTION_DOT = .112845E-2
MEAN_MOTION_DDOT = 0

CCSDS_OMM_VERS = 2.0
CREATION_DATE  = 
ORIGINATOR     = 

OBJECT_NAME    = ISS OBJECT XU
OBJECT_ID      = 1998-067XU
CENTER_NAME    = EARTH
REF_FRAME      = TEME
TIME_SYSTEM    = UTC
MEAN_ELEMENT_THEORY = SGP/SGP4

EPOCH          = 2026-02-12T10:22:05.114496
MEAN_MOTION    = 15.62515824
ECCENTRICITY   = .00017625
INCLINATION    = 51.6262
RA_OF_ASC_NODE = 193.7463
ARG_OF_PERICENTER = 285.9993
MEAN_ANOMALY   = 74.0807

EPHEMERIS_TYPE = 0
CLASSIFICATION_TYPE = U
NORAD_CAT_ID   = 66908
ELEMENT_SET_NO = 999
REV_AT_EPOCH   = 1122
BSTAR          = .14202587E-2
MEAN_MOTION_DOT = .130581E-2
MEAN_MOTION_DDOT = 0

